{"fetched_at":"2026-07-09T18:17:05.753Z","source":"https://celestrak.org/NORAD/elements/gp.php?NAME=HAWK&FORMAT=JSON","constellation":"hawkeye-360","records":[{"OBJECT_NAME":"HAWK-A","OBJECT_ID":"2018-099H","EPOCH":"2026-07-08T22:32:11.256288","CLASSIFICATION_TYPE":"U","MEAN_MOTION":15.24910778,"ECCENTRICITY":0.00340713,"INCLINATION":97.3904,"RA_OF_ASC_NODE":241.893,"ARG_OF_PERICENTER":206.1617,"MEAN_ANOMALY":153.7901,"EPHEMERIS_TYPE":0,"NORAD_CAT_ID":43765,"ELEMENT_SET_NO":999,"REV_AT_EPOCH":41641,"BSTAR":0.00017107385,"MEAN_MOTION_DOT":0.00004252,"MEAN_MOTION_DDOT":0},{"OBJECT_NAME":"HAWK-B","OBJECT_ID":"2018-099AN","EPOCH":"2026-07-08T15:47:41.763264","CLASSIFICATION_TYPE":"U","MEAN_MOTION":15.23065911,"ECCENTRICITY":0.00307986,"INCLINATION":97.395,"RA_OF_ASC_NODE":240.9855,"ARG_OF_PERICENTER":225.5796,"MEAN_ANOMALY":134.2919,"EPHEMERIS_TYPE":0,"NORAD_CAT_ID":43794,"ELEMENT_SET_NO":999,"REV_AT_EPOCH":41630,"BSTAR":0.00015822246,"MEAN_MOTION_DOT":0.00003703,"MEAN_MOTION_DDOT":0},{"OBJECT_NAME":"HAWK-C","OBJECT_ID":"2018-099AT","EPOCH":"2026-07-08T17:38:30.807456","CLASSIFICATION_TYPE":"U","MEAN_MOTION":15.2842245,"ECCENTRICITY":0.00396722,"INCLINATION":97.3881,"RA_OF_ASC_NODE":242.7106,"ARG_OF_PERICENTER":206.8217,"MEAN_ANOMALY":153.0972,"EPHEMERIS_TYPE":0,"NORAD_CAT_ID":43799,"ELEMENT_SET_NO":999,"REV_AT_EPOCH":41720,"BSTAR":0.00019320656,"MEAN_MOTION_DOT":0.00005393,"MEAN_MOTION_DDOT":0},{"OBJECT_NAME":"HAWK-2C","OBJECT_ID":"2021-006CT","EPOCH":"2026-07-08T16:01:16.503168","CLASSIFICATION_TYPE":"U","MEAN_MOTION":15.34933789,"ECCENTRICITY":0.0008518,"INCLINATION":97.2272,"RA_OF_ASC_NODE":233.5505,"ARG_OF_PERICENTER":119.6231,"MEAN_ANOMALY":240.5862,"EPHEMERIS_TYPE":0,"NORAD_CAT_ID":47502,"ELEMENT_SET_NO":999,"REV_AT_EPOCH":30279,"BSTAR":0.00014042064,"MEAN_MOTION_DOT":0.00004684,"MEAN_MOTION_DDOT":0},{"OBJECT_NAME":"HAWK-2A","OBJECT_ID":"2021-006CW","EPOCH":"2026-07-08T14:30:41.658048","CLASSIFICATION_TYPE":"U","MEAN_MOTION":15.34947929,"ECCENTRICITY":0.00079946,"INCLINATION":97.2311,"RA_OF_ASC_NODE":234.1791,"ARG_OF_PERICENTER":122.8132,"MEAN_ANOMALY":237.3883,"EPHEMERIS_TYPE":0,"NORAD_CAT_ID":47505,"ELEMENT_SET_NO":999,"REV_AT_EPOCH":30278,"BSTAR":0.00014539452,"MEAN_MOTION_DOT":0.00004854,"MEAN_MOTION_DDOT":0},{"OBJECT_NAME":"HAWK-2B","OBJECT_ID":"2021-006CZ","EPOCH":"2026-07-08T15:56:01.446432","CLASSIFICATION_TYPE":"U","MEAN_MOTION":15.35073286,"ECCENTRICITY":0.00085863,"INCLINATION":97.2183,"RA_OF_ASC_NODE":232.5348,"ARG_OF_PERICENTER":121.2729,"MEAN_ANOMALY":238.9357,"EPHEMERIS_TYPE":0,"NORAD_CAT_ID":47508,"ELEMENT_SET_NO":999,"REV_AT_EPOCH":30279,"BSTAR":0.00015934004,"MEAN_MOTION_DOT":0.0000535,"MEAN_MOTION_DDOT":0},{"OBJECT_NAME":"HAWK-3B","OBJECT_ID":"2021-059BE","EPOCH":"2026-07-08T13:00:48.566592","CLASSIFICATION_TYPE":"U","MEAN_MOTION":15.71414468,"ECCENTRICITY":0.00039062,"INCLINATION":97.6652,"RA_OF_ASC_NODE":28.2983,"ARG_OF_PERICENTER":224.4609,"MEAN_ANOMALY":135.634,"EPHEMERIS_TYPE":0,"NORAD_CAT_ID":48931,"ELEMENT_SET_NO":999,"REV_AT_EPOCH":28120,"BSTAR":0.00030419235,"MEAN_MOTION_DOT":0.00038704,"MEAN_MOTION_DDOT":0},{"OBJECT_NAME":"HAWK-3C","OBJECT_ID":"2021-059BX","EPOCH":"2026-07-08T13:00:22.427136","CLASSIFICATION_TYPE":"U","MEAN_MOTION":15.71407356,"ECCENTRICITY":0.0004226,"INCLINATION":97.6771,"RA_OF_ASC_NODE":34.0207,"ARG_OF_PERICENTER":223.2923,"MEAN_ANOMALY":136.8007,"EPHEMERIS_TYPE":0,"NORAD_CAT_ID":48948,"ELEMENT_SET_NO":999,"REV_AT_EPOCH":28120,"BSTAR":0.00030650578,"MEAN_MOTION_DOT":0.00038991,"MEAN_MOTION_DDOT":0},{"OBJECT_NAME":"HAWK-3A","OBJECT_ID":"2021-059CG","EPOCH":"2026-07-08T13:00:12.644064","CLASSIFICATION_TYPE":"U","MEAN_MOTION":15.71409877,"ECCENTRICITY":0.00040692,"INCLINATION":97.6713,"RA_OF_ASC_NODE":31.2077,"ARG_OF_PERICENTER":227.6759,"MEAN_ANOMALY":132.4159,"EPHEMERIS_TYPE":0,"NORAD_CAT_ID":48957,"ELEMENT_SET_NO":999,"REV_AT_EPOCH":28120,"BSTAR":0.00032418834,"MEAN_MOTION_DOT":0.00041263,"MEAN_MOTION_DDOT":0},{"OBJECT_NAME":"HAWK-5C","OBJECT_ID":"2022-057Y","EPOCH":"2026-07-08T09:19:41.551104","CLASSIFICATION_TYPE":"U","MEAN_MOTION":15.52151684,"ECCENTRICITY":0.00034736,"INCLINATION":97.6616,"RA_OF_ASC_NODE":350.4379,"ARG_OF_PERICENTER":12.0616,"MEAN_ANOMALY":348.0718,"EPHEMERIS_TYPE":0,"NORAD_CAT_ID":52754,"ELEMENT_SET_NO":999,"REV_AT_EPOCH":22963,"BSTAR":0.00020705345,"MEAN_MOTION_DOT":0.00012425,"MEAN_MOTION_DDOT":0},{"OBJECT_NAME":"HAWK-5B","OBJECT_ID":"2022-057AA","EPOCH":"2026-07-08T21:42:05.292288","CLASSIFICATION_TYPE":"U","MEAN_MOTION":15.52169831,"ECCENTRICITY":0.00040552,"INCLINATION":97.663,"RA_OF_ASC_NODE":349.3394,"ARG_OF_PERICENTER":357.5787,"MEAN_ANOMALY":2.5444,"EPHEMERIS_TYPE":0,"NORAD_CAT_ID":52756,"ELEMENT_SET_NO":999,"REV_AT_EPOCH":22971,"BSTAR":0.00021538375,"MEAN_MOTION_DOT":0.00012939,"MEAN_MOTION_DDOT":0},{"OBJECT_NAME":"HAWK-5A","OBJECT_ID":"2022-057AB","EPOCH":"2026-07-08T21:41:48.485760","CLASSIFICATION_TYPE":"U","MEAN_MOTION":15.52169718,"ECCENTRICITY":0.00039568,"INCLINATION":97.6624,"RA_OF_ASC_NODE":350.1701,"ARG_OF_PERICENTER":2.8161,"MEAN_ANOMALY":357.3112,"EPHEMERIS_TYPE":0,"NORAD_CAT_ID":52757,"ELEMENT_SET_NO":999,"REV_AT_EPOCH":22971,"BSTAR":0.00021434928,"MEAN_MOTION_DOT":0.00012876,"MEAN_MOTION_DDOT":0},{"OBJECT_NAME":"HAWK-6B","OBJECT_ID":"2023-011A","EPOCH":"2026-07-08T13:25:50.323008","CLASSIFICATION_TYPE":"U","MEAN_MOTION":15.23115098,"ECCENTRICITY":0.00031879,"INCLINATION":40.4969,"RA_OF_ASC_NODE":227.3973,"ARG_OF_PERICENTER":204.0869,"MEAN_ANOMALY":155.9792,"EPHEMERIS_TYPE":0,"NORAD_CAT_ID":55324,"ELEMENT_SET_NO":999,"REV_AT_EPOCH":19110,"BSTAR":0.00011223574,"MEAN_MOTION_DOT":0.00002509,"MEAN_MOTION_DDOT":0},{"OBJECT_NAME":"HAWK-6C","OBJECT_ID":"2023-011C","EPOCH":"2026-07-08T13:24:56.583072","CLASSIFICATION_TYPE":"U","MEAN_MOTION":15.23116126,"ECCENTRICITY":0.00036014,"INCLINATION":40.4958,"RA_OF_ASC_NODE":224.2363,"ARG_OF_PERICENTER":192.3614,"MEAN_ANOMALY":167.7107,"EPHEMERIS_TYPE":0,"NORAD_CAT_ID":55326,"ELEMENT_SET_NO":999,"REV_AT_EPOCH":19111,"BSTAR":0.00012466397,"MEAN_MOTION_DOT":0.00002808,"MEAN_MOTION_DDOT":0},{"OBJECT_NAME":"HAWK-6A","OBJECT_ID":"2023-011D","EPOCH":"2026-07-08T13:24:59.411808","CLASSIFICATION_TYPE":"U","MEAN_MOTION":15.23117158,"ECCENTRICITY":0.00031384,"INCLINATION":40.4967,"RA_OF_ASC_NODE":225.8631,"ARG_OF_PERICENTER":190.2605,"MEAN_ANOMALY":169.814,"EPHEMERIS_TYPE":0,"NORAD_CAT_ID":55327,"ELEMENT_SET_NO":999,"REV_AT_EPOCH":19111,"BSTAR":0.00012322566,"MEAN_MOTION_DOT":0.00002774,"MEAN_MOTION_DDOT":0},{"OBJECT_NAME":"HAWK-7A","OBJECT_ID":"2023-054P","EPOCH":"2026-07-08T22:12:15.912288","CLASSIFICATION_TYPE":"U","MEAN_MOTION":15.27588795,"ECCENTRICITY":0.00021288,"INCLINATION":97.2676,"RA_OF_ASC_NODE":76.7099,"ARG_OF_PERICENTER":1.2836,"MEAN_ANOMALY":358.8408,"EPHEMERIS_TYPE":0,"NORAD_CAT_ID":56191,"ELEMENT_SET_NO":999,"REV_AT_EPOCH":18034,"BSTAR":0.00013363159,"MEAN_MOTION_DOT":0.00003532,"MEAN_MOTION_DDOT":0}]}
